{"type":"FeatureCollection","features":[{"type":"Feature","properties":{"name":"India"},"geometry":{"type":"MultiPolygon","coordinates":[[[[80.23,13.49],[80.27,13.47],[80.28,13.43],[80.33,13.43],[80.35,13.33],[80.33,13.21],[80.3,13.15],[80.3,13.08],[80.26,12.97],[80.24,12.8],[80.26,12.78],[80.14,12.43],[80.07,12.36],[80.02,12.27],[79.99,12.26],[80,12.23],[79.9,12.1],[79.85,12],[79.76,11.64],[79.76,11.53],[79.81,11.45],[79.82,11.37],[79.84,11.35],[79.85,11.24],[79.83,11.23],[79.85,11.23],[79.86,11.18],[79.84,10.82],[79.88,10.29],[79.74,10.27],[79.77,10.29],[79.76,10.31],[79.72,10.32],[79.7,10.3],[79.69,10.32],[79.64,10.32],[79.62,10.36],[79.61,10.31],[79.53,10.3],[79.54,10.32],[79.38,10.32],[79.37,10.29],[79.3,10.27],[79.27,10.24],[79.28,10.21],[79.23,10.15],[79.23,10.08],[79.25,10.07],[79.26,10.03],[79.24,10.03],[79.15,9.93],[79.15,9.91],[79.12,9.89],[79.12,9.85],[78.99,9.71],[78.96,9.62],[78.93,9.61],[78.92,9.5],[78.9,9.49],[78.93,9.41],[79.01,9.33],[79.09,9.29],[79.16,9.28],[79.11,9.26],[78.87,9.26],[78.72,9.21],[78.72,9.19],[78.66,9.2],[78.64,9.18],[78.65,9.16],[78.58,9.13],[78.48,9.14],[78.4,9.11],[78.38,9.08],[78.36,9.09],[78.33,9.04],[78.21,8.97],[78.18,8.92],[78.16,8.77],[78.2,8.79],[78.2,8.75],[78.16,8.74],[78.13,8.66],[78.11,8.66],[78.11,8.64],[78.13,8.65],[78.14,8.6],[78.12,8.54],[78.13,8.49],[78.06,8.42],[78.07,8.37],[77.97,8.34],[77.94,8.3],[77.87,8.26],[77.81,8.25],[77.74,8.17],[77.58,8.14],[77.55,8.08],[77.44,8.09],[77.34,8.13],[77.31,8.12],[77.29,8.16],[77.24,8.17],[77.17,8.23],[77.17,8.25],[77.13,8.26],[76.97,8.39],[76.96,8.43],[76.7,8.73],[76.65,8.82],[76.54,8.91],[76.52,9.02],[76.47,9.11],[76.48,9.15],[76.45,9.15],[76.44,9.17],[76.44,9.23],[76.4,9.26],[76.31,9.5],[76.29,9.74],[76.26,9.85],[76.28,9.9],[76.25,9.9],[76.12,10.34],[75.91,10.78],[75.86,10.99],[75.87,11.01],[75.85,11.02],[75.85,11.07],[75.78,11.21],[75.76,11.3],[75.73,11.33],[75.74,11.35],[75.68,11.45],[75.66,11.47],[75.62,11.47],[75.54,11.7],[75.47,11.77],[75.45,11.77],[75.44,11.81],[75.42,11.81],[75.39,11.86],[75.35,11.86],[75.31,11.92],[75.33,11.95],[75.3,11.96],[75.27,12.02],[75.26,12],[75.24,12.02],[75.2,12.01],[75.19,12.06],[75.17,12.06],[75.18,12.08],[75.16,12.09],[75.16,12.15],[75.13,12.16],[75.13,12.21],[75.11,12.21],[75.06,12.36],[74.96,12.52],[74.92,12.65],[74.82,12.85],[74.82,12.93],[74.8,12.93],[74.78,13.08],[74.72,13.27],[74.73,13.29],[74.7,13.34],[74.68,13.59],[74.64,13.68],[74.62,13.84],[74.58,13.94],[74.51,13.99],[74.47,14.2],[74.44,14.22],[74.4,14.41],[74.38,14.42],[74.37,14.49],[74.35,14.5],[74.36,14.52],[74.31,14.52],[74.31,14.57],[74.27,14.62],[74.27,14.72],[74.23,14.75],[74.19,14.72],[74.18,14.75],[74.15,14.75],[74.15,14.78],[74.12,14.77],[74.12,14.79],[74.09,14.8],[74.13,14.81],[74.1,14.9],[74.04,14.92],[74.05,14.97],[74.03,15.01],[73.99,15.02],[73.97,15.07],[73.92,15.09],[73.95,15.16],[73.9,15.33],[73.88,15.37],[73.84,15.36],[73.79,15.39],[73.79,15.42],[73.81,15.4],[73.89,15.4],[73.9,15.42],[73.86,15.43],[73.86,15.45],[73.8,15.45],[73.8,15.5],[73.76,15.49],[73.77,15.51],[73.73,15.59],[73.75,15.63],[73.72,15.63],[73.69,15.72],[73.65,15.74],[73.67,15.75],[73.66,15.8],[73.64,15.81],[73.63,15.85],[73.61,15.85],[73.59,15.91],[73.5,15.95],[73.51,15.97],[73.49,15.98],[73.49,16.03],[73.46,16.05],[73.46,16.13],[73.41,16.26],[73.42,16.29],[73.39,16.31],[73.4,16.36],[73.37,16.36],[73.37,16.38],[73.4,16.4],[73.37,16.4],[73.31,16.53],[73.33,16.56],[73.35,16.54],[73.36,16.57],[73.32,16.58],[73.32,16.61],[73.35,16.62],[73.32,16.64],[73.32,16.81],[73.29,16.83],[73.29,16.99],[73.27,16.99],[73.28,17.02],[73.26,17.02],[73.26,17.05],[73.29,17.05],[73.29,17.11],[73.27,17.11],[73.26,17.18],[73.23,17.19],[73.25,17.22],[73.23,17.23],[73.23,17.26],[73.19,17.29],[73.2,17.31],[73.23,17.28],[73.24,17.32],[73.22,17.32],[73.23,17.34],[73.2,17.39],[73.17,17.39],[73.17,17.41],[73.19,17.41],[73.19,17.49],[73.18,17.52],[73.14,17.54],[73.14,17.57],[73.17,17.59],[73.14,17.6],[73.14,17.65],[73.11,17.68],[73.11,17.7],[73.13,17.7],[73.13,17.74],[73.11,17.8],[73.08,17.81],[73.1,17.85],[73.08,17.85],[73.08,17.88],[73.05,17.9],[73.05,17.93],[73.03,17.94],[73.04,17.99],[73.02,17.99],[73.01,18.05],[72.99,18.05],[73,18.09],[72.97,18.13],[72.99,18.14],[72.99,18.2],[72.93,18.22],[72.94,18.28],[72.97,18.28],[72.98,18.24],[73.01,18.25],[73.07,18.23],[73.07,18.2],[73.08,18.24],[73.06,18.25],[73.06,18.28],[72.99,18.28],[72.95,18.34],[72.91,18.35],[72.93,18.39],[72.91,18.39],[72.9,18.5],[72.93,18.54],[72.89,18.63],[72.86,18.65],[72.86,18.8],[72.92,18.79],[72.93,18.82],[72.95,18.82],[72.96,18.79],[72.98,18.8],[72.98,18.86],[72.92,18.85],[72.91,18.9],[72.96,18.91],[72.94,18.94],[72.95,18.97],[72.98,18.96],[73.03,19],[73,19],[72.99,19.06],[72.96,19.06],[72.94,19.01],[72.86,19],[72.83,18.91],[72.82,18.95],[72.8,18.95],[72.81,19.01],[72.84,19.03],[72.84,19.05],[72.82,19.04],[72.83,19.1],[72.81,19.15],[72.79,19.13],[72.78,19.15],[72.78,19.17],[72.8,19.17],[72.8,19.21],[72.78,19.21],[72.78,19.3],[72.8,19.33],[72.76,19.37],[72.75,19.47],[72.78,19.49],[72.78,19.51],[72.74,19.51],[72.72,19.54],[72.71,19.6],[72.73,19.6],[72.73,19.63],[72.71,19.64],[72.71,19.72],[72.69,19.74],[72.68,19.82],[72.65,19.83],[72.65,19.86],[72.68,19.86],[72.67,19.94],[72.72,19.97],[72.71,20.08],[72.73,20.08],[72.74,20.11],[72.75,20.29],[72.83,20.38],[72.83,20.45],[72.89,20.5],[72.9,20.6],[72.85,20.72],[72.87,20.75],[72.84,20.77],[72.82,20.85],[72.79,20.89],[72.79,20.94],[72.75,20.94],[72.72,21.03],[72.72,21.05],[72.76,21.06],[72.7,21.07],[72.67,21.14],[72.66,21.09],[72.63,21.08],[72.62,21.22],[72.64,21.23],[72.6,21.24],[72.59,21.31],[72.61,21.32],[72.62,21.36],[72.64,21.36],[72.62,21.38],[72.66,21.41],[72.66,21.43],[72.68,21.43],[72.65,21.44],[72.65,21.46],[72.69,21.54],[72.62,21.49],[72.63,21.51],[72.61,21.52],[72.6,21.56],[72.63,21.62],[72.68,21.63],[72.71,21.66],[72.81,21.66],[72.77,21.66],[72.73,21.69],[72.54,21.66],[72.52,21.68],[72.52,21.72],[72.54,21.73],[72.57,21.83],[72.52,21.85],[72.5,21.93],[72.53,22.11],[72.55,22.17],[72.59,22.21],[72.65,22.22],[72.7,22.18],[72.76,22.17],[72.81,22.25],[72.88,22.22],[72.91,22.25],[72.86,22.24],[72.86,22.27],[72.83,22.28],[72.77,22.23],[72.73,22.23],[72.68,22.24],[72.66,22.28],[72.6,22.28],[72.54,22.24],[72.53,22.28],[72.52,22.24],[72.48,22.2],[72.49,22.24],[72.46,22.25],[72.44,22.3],[72.39,22.31],[72.41,22.33],[72.4,22.36],[72.4,22.34],[72.37,22.33],[72.38,22.3],[72.42,22.29],[72.42,22.23],[72.41,22.21],[72.38,22.21],[72.39,22.16],[72.37,22.15],[72.35,22.18],[72.36,22.15],[72.34,22.13],[72.32,22.15],[72.32,22.19],[72.3,22.19],[72.32,22.14],[72.31,22.06],[72.29,22.1],[72.27,22.07],[72.23,22.06],[72.22,22.02],[72.23,21.98],[72.21,21.95],[72.26,21.89],[72.26,21.77],[72.28,21.75],[72.27,21.7],[72.31,21.63],[72.26,21.56],[72.27,21.54],[72.23,21.44],[72.12,21.33],[72.11,21.28],[72.08,21.25],[72.11,21.2],[72.03,21.15],[72.01,21.15],[72.01,21.19],[71.98,21.12],[71.93,21.12],[71.89,21.09],[71.81,21.07],[71.8,21.04],[71.76,21.02],[71.65,21],[71.65,20.97],[71.61,20.98],[71.61,20.96],[71.58,20.95],[71.51,20.95],[71.51,20.92],[71.49,20.92],[71.47,20.88],[71.38,20.88],[71.37,20.85],[71.32,20.85],[71.21,20.79],[71.15,20.78],[71.13,20.75],[71.08,20.76],[71.07,20.73],[71,20.74],[71,20.71],[70.98,20.7],[70.84,20.71],[70.84,20.69],[70.82,20.69],[70.82,20.72],[70.8,20.7],[70.78,20.72],[70.73,20.72],[70.68,20.76],[70.66,20.75],[70.58,20.78],[70.49,20.84],[70.42,20.86],[70.39,20.9],[70.31,20.93],[70.24,21],[70.18,21.03],[69.97,21.23],[69.97,21.25],[69.82,21.4],[69.82,21.42],[69.73,21.5],[69.72,21.54],[69.68,21.55],[69.62,21.63],[69.56,21.65],[69.48,21.74],[69.38,21.81],[69.38,21.83],[69.34,21.84],[69.3,21.89],[69.28,21.89],[69.16,22.01],[69.16,22.03],[69.14,22.03],[69.14,22.05],[68.95,22.24],[68.96,22.26],[68.94,22.28],[68.94,22.33],[68.96,22.34],[68.97,22.4],[69.07,22.48],[69.08,22.46],[69.04,22.44],[69.05,22.41],[69.09,22.39],[69.1,22.41],[69.15,22.4],[69.19,22.42],[69.2,22.39],[69.18,22.38],[69.19,22.36],[69.17,22.35],[69.16,22.3],[69.21,22.26],[69.25,22.26],[69.32,22.29],[69.34,22.31],[69.33,22.33],[69.48,22.33],[69.49,22.36],[69.52,22.37],[69.52,22.42],[69.55,22.41],[69.56,22.36],[69.58,22.37],[69.61,22.34],[69.62,22.36],[69.66,22.36],[69.66,22.39],[69.7,22.4],[69.69,22.45],[69.73,22.47],[69.74,22.43],[69.81,22.4],[69.83,22.48],[69.84,22.45],[69.88,22.45],[69.89,22.47],[69.91,22.46],[69.92,22.51],[69.95,22.52],[69.94,22.55],[69.96,22.55],[69.96,22.58],[69.99,22.59],[70.03,22.59],[70.02,22.55],[70.17,22.55],[70.21,22.64],[70.23,22.64],[70.25,22.68],[70.24,22.72],[70.26,22.71],[70.26,22.74],[70.28,22.73],[70.3,22.75],[70.31,22.8],[70.34,22.82],[70.37,22.9],[70.42,22.92],[70.44,22.99],[70.48,23.02],[70.49,23.08],[70.4,23.03],[70.39,22.95],[70.36,22.93],[70.27,22.95],[70.25,22.98],[70.22,22.97],[70.22,22.95],[70.17,22.94],[70.12,22.96],[70.14,22.93],[70.12,22.91],[69.96,22.9],[69.92,22.87],[69.84,22.87],[69.79,22.85],[69.75,22.82],[69.72,22.74],[69.69,22.74],[69.67,22.78],[69.66,22.75],[69.65,22.77],[69.58,22.76],[69.55,22.79],[69.49,22.79],[69.47,22.77],[69.34,22.83],[69.19,22.84],[69.07,22.92],[68.95,22.97],[68.91,23.01],[68.83,23.04],[68.82,23.07],[68.8,23.06],[68.75,23.08],[68.58,23.22],[68.59,23.24],[68.61,23.23],[68.66,23.26],[68.63,23.28],[68.65,23.32],[68.6,23.33],[68.55,23.38],[68.56,23.42],[68.53,23.42],[68.53,23.46],[68.5,23.44],[68.5,23.48],[68.49,23.4],[68.46,23.41],[68.46,23.45],[68.44,23.45],[68.46,23.5],[68.49,23.5],[68.5,23.53],[68.48,23.57],[68.48,23.54],[68.45,23.55],[68.43,23.52],[68.43,23.56],[68.46,23.58],[68.44,23.59],[68.44,23.62],[68.48,23.62],[68.56,23.72],[68.6,23.73],[68.6,23.75],[68.65,23.78],[68.66,23.81],[68.74,23.83],[68.73,23.86],[68.59,23.84],[68.54,23.76],[68.52,23.78],[68.52,23.75],[68.48,23.75],[68.48,23.73],[68.44,23.74],[68.46,23.77],[68.46,23.82],[68.55,23.83],[68.58,23.89],[68.63,23.9],[68.61,23.94],[68.59,23.94],[68.55,23.87],[68.53,23.88],[68.53,23.86],[68.5,23.86],[68.49,23.89],[68.53,23.91],[68.54,23.96],[68.75,23.96],[68.76,24.28],[68.79,24.3],[68.83,24.31],[68.84,24.23],[68.87,24.2],[68.9,24.2],[68.91,24.25],[68.95,24.28],[68.98,24.23],[69.01,24.23],[69.08,24.27],[69.2,24.24],[69.31,24.28],[69.56,24.26],[69.6,24.28],[69.73,24.17],[69.91,24.16],[70.05,24.18],[70.1,24.27],[70.14,24.3],[70.37,24.35],[70.56,24.42],[70.61,24.4],[70.59,24.35],[70.57,24.35],[70.59,24.31],[70.57,24.29],[70.59,24.29],[70.57,24.25],[70.69,24.22],[70.84,24.23],[70.85,24.25],[70.89,24.26],[70.88,24.29],[70.96,24.35],[71.06,24.35],[71.1,24.39],[71.13,24.39],[71.12,24.43],[71.01,24.44],[71.02,24.52],[71,24.54],[71.01,24.62],[71.11,24.68],[71.07,24.71],[71.04,24.8],[70.93,24.97],[70.89,25.14],[70.67,25.39],[70.69,25.52],[70.67,25.7],[70.62,25.71],[70.54,25.68],[70.39,25.66],[70.28,25.7],[70.25,25.76],[70.17,25.83],[70.1,25.94],[70.08,26.07],[70.17,26.22],[70.17,26.55],[70.09,26.6],[69.92,26.58],[69.82,26.59],[69.7,26.67],[69.51,26.74],[69.48,26.81],[69.51,27.02],[69.56,27.14],[70.02,27.56],[70.11,27.77],[70.21,27.89],[70.37,28.01],[70.51,28.04],[70.56,28.02],[70.66,27.93],[70.68,27.84],[70.74,27.74],[70.77,27.71],[70.82,27.7],[70.91,27.7],[71.26,27.84],[71.41,27.87],[71.66,27.87],[71.9,27.96],[71.93,28.13],[72.02,28.23],[72.13,28.3],[72.2,28.38],[72.3,28.66],[72.34,28.72],[72.4,28.78],[72.47,28.8],[72.71,28.94],[72.94,29.02],[73,29.15],[73.12,29.29],[73.29,29.6],[73.39,29.94],[73.56,30.01],[73.79,30.07],[73.96,30.19],[73.96,30.26],[73.94,30.3],[73.87,30.37],[73.9,30.42],[73.93,30.42],[73.93,30.46],[73.97,30.46],[73.97,30.49],[74.03,30.54],[74.07,30.52],[74.09,30.61],[74.19,30.66],[74.23,30.72],[74.28,30.73],[74.26,30.77],[74.3,30.78],[74.29,30.81],[74.31,30.84],[74.37,30.85],[74.37,30.89],[74.42,30.91],[74.42,30.93],[74.47,30.97],[74.54,30.99],[74.53,31.02],[74.56,31.07],[74.6,31.04],[74.66,31.05],[74.69,31.08],[74.69,31.12],[74.65,31.14],[74.62,31.12],[74.63,31.14],[74.6,31.14],[74.6,31.09],[74.59,31.1],[74.57,31.08],[74.54,31.1],[74.54,31.13],[74.53,31.12],[74.5,31.14],[74.52,31.24],[74.51,31.28],[74.55,31.3],[74.59,31.4],[74.63,31.42],[74.64,31.45],[74.62,31.48],[74.63,31.49],[74.57,31.5],[74.57,31.52],[74.61,31.54],[74.59,31.61],[74.52,31.72],[74.52,31.75],[74.55,31.75],[74.54,31.78],[74.58,31.86],[74.63,31.88],[74.66,31.92],[74.7,31.92],[74.71,31.96],[74.75,31.94],[74.81,31.96],[74.82,32],[74.87,32.02],[74.86,32.05],[74.9,32.05],[74.91,32.07],[75.01,32.03],[75.11,32.08],[75.19,32.08],[75.19,32.12],[75.22,32.11],[75.23,32.08],[75.28,32.14],[75.31,32.15],[75.33,32.2],[75.31,32.22],[75.36,32.23],[75.37,32.27],[75.33,32.3],[75.34,32.32],[75.29,32.37],[75.19,32.4],[75.23,32.43],[75.13,32.41],[75.11,32.47],[75.03,32.5],[75.02,32.47],[74.95,32.45],[74.94,32.47],[74.92,32.46],[74.88,32.48],[74.89,32.52],[74.87,32.49],[74.82,32.5],[74.81,32.48],[74.68,32.49],[74.69,32.53],[74.66,32.55],[74.67,32.57],[74.65,32.56],[74.66,32.6],[74.64,32.61],[74.66,32.62],[74.65,32.64],[74.7,32.66],[74.65,32.7],[74.65,32.73],[74.7,32.84],[74.63,32.81],[74.66,32.79],[74.63,32.78],[74.64,32.75],[74.56,32.76],[74.51,32.74],[74.51,32.76],[74.46,32.79],[74.35,32.76],[74.3,32.82],[74.22,32.84],[74.18,32.88],[73.99,32.94],[74,32.96],[73.96,32.99],[73.83,33.01],[73.81,32.97],[73.78,32.97],[73.79,33],[73.73,33.07],[73.63,33.09],[73.63,33.14],[73.66,33.17],[73.66,33.21],[73.6,33.25],[73.59,33.34],[73.56,33.34],[73.58,33.43],[73.62,33.46],[73.6,33.5],[73.63,33.53],[73.6,33.61],[73.59,33.6],[73.56,33.62],[73.56,33.68],[73.59666666666666,33.71666666666667],[73.56,33.78],[73.59,33.88],[73.52,33.98],[73.49,34.22],[73.47,34.25],[73.48,34.29],[73.47,34.3],[73.45,34.28],[73.42,34.35],[73.39,34.37],[73.42,34.42],[73.45,34.57],[73.62,34.59],[73.65,34.57],[73.66,34.61],[73.7,34.65],[73.67,34.68],[73.75,34.79],[73.85,34.82],[73.92,34.81],[73.97,34.86],[74.03,34.88],[74.04,34.92],[74.07,34.94],[74.06,34.99],[74.11,35.02],[74.07,35.05],[74.09,35.1],[74.13,35.11],[74.11,35.15],[74.04,35.15],[74,35.18],[73.96,35.17],[73.92,35.21],[73.86,35.21],[73.8,35.25],[73.73,35.22],[73.73,35.28],[73.7,35.32],[73.7,35.36],[73.74,35.43],[73.79,35.46],[73.78,35.52],[73.63,35.57],[73.57,35.55],[73.48,35.58],[73.41,35.56],[73.37,35.6],[73.27,35.63],[73.14,35.72],[73.15,35.84],[73.09,35.88],[73.04,35.85],[73,35.86],[72.93,35.84],[72.9,35.85],[72.9,35.88],[72.83,35.89],[72.78,35.84],[72.74,35.86],[72.69,35.83],[72.53,35.92],[72.56,36],[72.6,36.03],[72.59,36.05],[72.53,36.07],[72.57,36.15],[72.55,36.18],[72.59,36.26],[72.64,36.28],[72.69,36.25],[72.69,36.27],[72.78,36.31],[72.88,36.39],[72.88,36.44],[72.96,36.47],[72.99,36.46],[73,36.51],[73.06,36.54],[73.11,36.61],[73.09,36.63],[73.08,36.7],[73.13,36.69],[73.19,36.72],[73.21,36.7],[73.36,36.71],[73.37,36.73],[73.44,36.74],[73.54,36.71],[73.6,36.72],[73.63,36.69],[73.65,36.7],[73.7,36.68],[73.72,36.71],[73.9,36.71],[73.9,36.75],[73.86,36.79],[73.72,36.83],[73.72,36.86],[73.68,36.88],[73.69,36.91],[73.81,36.9],[73.82,36.88],[73.85,36.9],[74.06,36.81],[74.09,36.84],[74.14,36.84],[74.17,36.9],[74.26,36.89],[74.37,36.96],[74.42,36.97],[74.43,36.99],[74.53,36.99],[74.55,36.95],[74.58,36.95],[74.59,37.04],[74.71,37.08],[74.73,37.02],[74.75,37.01],[74.78,37.03],[74.84,37.02],[74.92,36.91],[75.02,36.98],[75.09,36.94],[75.15,36.97],[75.21,37.04],[75.34,37.05],[75.35,36.98],[75.42,36.96],[75.43,36.94],[75.41,36.89],[75.44,36.89],[75.47,36.81],[75.62,36.76],[75.77,36.57],[75.92,36.5],[76.08,36.47],[76.17,36.39],[76.2,36.39],[76.25,36.35],[76.35,36.36],[76.43,36.31],[76.45,36.27],[76.43,36.25],[76.48,36.21],[76.6,36.16],[76.64,36.18],[76.7,36.13],[76.72,36.08],[76.8,36.05],[76.81,36.02],[76.77,36.01],[76.72,35.95],[76.78,35.9],[76.81,35.84],[76.86,35.83],[76.93,35.78],[77.02,35.77],[77.11,35.8],[77.16,35.77],[77.17,35.73],[77.22,35.73],[77.23,35.71],[77.28,35.72],[77.31,35.7],[77.36,35.72],[77.4,35.66],[77.43,35.65],[77.46,35.55],[77.49,35.53],[77.43,35.52],[77.38,35.55],[77.32,35.53],[77.35,35.49],[77.44,35.46],[77.51,35.49],[77.61,35.47],[77.64,35.49],[77.67,35.47],[77.72,35.47],[77.73,35.52],[77.77,35.49],[77.82,35.51],[77.86,35.48],[77.9,35.47],[77.92,35.49],[77.98,35.46],[77.93,35.52],[77.97,35.57],[77.95,35.61],[77.99,35.58],[78.04,35.59],[78.08,35.55],[78.14,35.54],[78.16,35.55],[78.16,35.63],[78.18,35.62],[78.2,35.67],[78.25,35.65],[78.27,35.67],[78.27,35.72],[78.34,35.72],[78.42,35.78],[78.52,35.76],[78.66,35.86],[78.82,35.86],[78.96,35.89],[79.02,35.85],[79.13,35.84],[79.19,35.89],[79.19,35.95],[79.21,35.98],[79.38,35.99],[79.42,35.9],[79.74,35.8],[79.87,35.78],[79.93,35.83],[80,35.84],[80.11,35.68],[80.29,35.61],[80.33,35.47],[80.28,35.44],[80.27,35.34],[80.18,35.17],[80.17,35],[80.12,34.89],[80.07,34.83],[80.07,34.71],[79.94,34.68],[79.86,34.69],[79.81,34.64],[79.77,34.63],[79.79,34.59],[79.76,34.55],[79.81,34.53],[79.79,34.48],[79.66,34.48],[79.59,34.5],[79.51,34.47],[79.53,34.42],[79.56,34.41],[79.56,34.33],[79.59,34.28],[79.57,34.22],[79.51,34.21],[79.49,34.14],[79.42,34.08],[79.41,34.05],[79.44,34.03],[79.43,34.02],[79.15,34.07],[79.11,34.02],[79.02,34.05],[78.95,34.03],[78.9,33.98],[78.95,33.92],[78.94,33.91],[79,33.8],[79.05,33.77],[79.06,33.78],[79.07,33.76],[79.04,33.75],[79.02,33.71],[79.05,33.68],[79.09,33.69],[79.11,33.62],[79.05,33.63],[78.99,33.61],[78.91,33.63],[78.95,33.38],[78.97,33.38],[78.99,33.33],[79.02,33.34],[79.11,33.29],[79.24,33.3],[79.31,33.27],[79.37,33.28],[79.45,33.26],[79.38,33.08],[79.39,33.04],[79.33,33.01],[79.42,32.96],[79.63,32.74],[79.47,32.58],[79.45,32.53],[79.41,32.53],[79.39,32.57],[79.32,32.59],[79.24,32.51],[79.13,32.47],[79.15,32.44],[79.11,32.38],[79.03,32.39],[78.98,32.34],[78.96,32.37],[78.9,32.39],[78.86,32.44],[78.83,32.44],[78.78,32.56],[78.8,32.6],[78.76,32.66],[78.77,32.7],[78.72,32.66],[78.66,32.65],[78.62,32.6],[78.57,32.62],[78.53,32.61],[78.5,32.58],[78.46,32.58],[78.43,32.53],[78.4,32.53],[78.41,32.51],[78.45,32.5],[78.44,32.45],[78.52,32.42],[78.46,32.35],[78.47,32.28],[78.44,32.25],[78.54,32.25],[78.6,32.22],[78.59,32.17],[78.57,32.16],[78.59,32.13],[78.65,32.11],[78.69,32.04],[78.74,32],[78.77,32],[78.72,31.89],[78.72,31.83],[78.69,31.82],[78.69,31.78],[78.72,31.77],[78.71,31.74],[78.73,31.69],[78.78,31.69],[78.78,31.66],[78.83,31.63],[78.83,31.61],[78.81,31.58],[78.72,31.54],[78.71,31.51],[78.8,31.45],[78.78,31.4],[78.84,31.37],[78.83,31.33],[78.88,31.27],[78.92,31.27],[78.92,31.33],[78.99,31.36],[79.05,31.47],[79.09,31.46],[79.14,31.43],[79.19,31.35],[79.22,31.34],[79.22,31.32],[79.25,31.3],[79.23,31.25],[79.27,31.24],[79.29,31.2],[79.28,31.17],[79.39,31.11],[79.41,31.04],[79.5,31.04],[79.52,30.99],[79.54,30.99],[79.53,30.97],[79.58,30.94],[79.65,30.97],[79.65,30.99],[79.7,30.98],[79.74,31.01],[79.79,30.98],[79.86,30.98],[79.87,30.93],[79.92,30.89],[80,30.87],[80.02,30.84],[80.05,30.84],[80.08,30.79],[80.11,30.78],[80.14,30.81],[80.17,30.81],[80.19,30.76],[80.23,30.76],[80.24,30.74],[80.22,30.7],[80.18,30.68],[80.21,30.65],[80.2,30.62],[80.22,30.57],[80.31,30.57],[80.33,30.54],[80.38,30.52],[80.41,30.53],[80.53,30.45],[80.58,30.49],[80.74,30.4],[80.79,30.33],[81.02,30.26],[81.02,30.24],[80.93,30.24],[80.86,30.17],[80.88,30.13],[80.85,30.12],[80.85,30.1],[80.8,30.09],[80.74,30],[80.68,29.96],[80.59,29.95],[80.55,29.86],[80.56,29.85],[80.5,29.82],[80.5,29.8],[80.42,29.8],[80.4,29.76],[80.37,29.75],[80.39,29.66],[80.42,29.65],[80.41,29.59],[80.38,29.56],[80.35,29.56],[80.34,29.54],[80.36,29.53],[80.31,29.5],[80.32,29.48],[80.29,29.48],[80.3,29.45],[80.24,29.44],[80.24,29.41],[80.28,29.38],[80.27,29.36],[80.3,29.32],[80.32,29.32],[80.29,29.23],[80.3,29.2],[80.25,29.22],[80.24,29.2],[80.26,29.19],[80.27,29.14],[80.21,29.12],[80.18,29.14],[80.15,29.1],[80.12,28.98],[80.1,28.99],[80.06,28.92],[80.07,28.83],[80.12,28.83],[80.2,28.76],[80.25,28.76],[80.27,28.71],[80.31,28.71],[80.37,28.63],[80.44,28.64],[80.47,28.62],[80.47,28.58],[80.5,28.58],[80.52,28.55],[80.51,28.67],[80.57,28.69],[80.61,28.64],[80.67,28.64],[80.68,28.6],[80.72,28.57],[80.77,28.57],[80.79,28.52],[80.84,28.5],[80.9,28.51],[80.91,28.46],[80.95,28.46],[80.98,28.43],[81.02,28.45],[81.02,28.43],[81.04,28.43],[81.02,28.41],[81.05,28.41],[81.08,28.38],[81.22,28.36],[81.24,28.32],[81.23,28.29],[81.33,28.18],[81.3,28.17],[81.33,28.15],[81.32,28.13],[81.38,28.14],[81.38,28.18],[81.43,28.17],[81.49,28.12],[81.48,28.08],[81.65,27.99],[81.7,27.99],[81.9,27.85],[81.93,27.86],[81.97,27.93],[82.03,27.93],[82.07,27.92],[82.13,27.86],[82.16,27.87],[82.2,27.85],[82.44,27.68],[82.71,27.72],[82.71,27.66],[82.74,27.65],[82.74,27.6],[82.76,27.59],[82.74,27.5],[82.93,27.5],[82.95,27.47],[83.02,27.45],[83.18,27.46],[83.27,27.38],[83.27,27.35],[83.3,27.33],[83.35,27.33],[83.41,27.41],[83.39,27.43],[83.39,27.48],[83.62,27.47],[83.87,27.35],[83.91,27.39],[83.88,27.39],[83.87,27.43],[84,27.45],[84.03,27.43],[84.1,27.49],[84.1,27.52],[84.15,27.52],[84.15,27.48],[84.21,27.47],[84.21,27.44],[84.23,27.46],[84.26,27.45],[84.3,27.38],[84.62,27.34],[84.69,27.23],[84.69,27.14],[84.67,27.11],[84.68,27.1],[84.65,27.08],[84.65,27.04],[84.75,27],[84.77,27.02],[84.8,27],[84.83,27.02],[84.89,26.97],[84.97,26.96],[84.98,26.91],[85.01,26.89],[85.06,26.89],[85.04,26.87],[85.03,26.88],[85.05,26.85],[85.09,26.87],[85.2,26.87],[85.18,26.8],[85.21,26.76],[85.34,26.74],[85.41,26.79],[85.46,26.78],[85.55,26.84],[85.56,26.83],[85.57,26.86],[85.6,26.85],[85.64,26.87],[85.64,26.85],[85.74,26.8],[85.73,26.65],[85.81,26.62],[85.82,26.6],[85.85,26.61],[85.85,26.57],[85.89,26.58],[85.93,26.62],[85.95,26.61],[85.96,26.65],[86.03,26.67],[86.14,26.63],[86.14,26.6],[86.18,26.62],[86.2,26.59],[86.24,26.59],[86.25,26.62],[86.35,26.62],[86.34,26.61],[86.39,26.6],[86.4,26.58],[86.54,26.54],[86.58,26.49],[86.62,26.49],[86.64,26.46],[86.7,26.45],[86.74,26.42],[86.77,26.45],[86.76,26.46],[86.85,26.44],[86.86,26.46],[86.9,26.46],[86.89,26.49],[86.93,26.49],[86.94,26.52],[87.02,26.53],[87.05,26.59],[87.07,26.59],[87.09,26.45],[87.16,26.4],[87.27,26.41],[87.27,26.37],[87.32,26.37],[87.34,26.35],[87.36,26.36],[87.37,26.41],[87.46,26.44],[87.55,26.42],[87.61,26.38],[87.65,26.39],[87.68,26.44],[87.72,26.43],[87.73,26.41],[87.77,26.41],[87.79,26.47],[87.85,26.44],[87.89,26.49],[87.91,26.46],[87.9,26.45],[87.93,26.45],[87.93,26.42],[87.99,26.39],[88,26.36],[88.03,26.36],[88.03,26.39],[88.1,26.44],[88.11,26.49],[88.09,26.51],[88.11,26.52],[88.14,26.63],[88.17,26.65],[88.17,26.7],[88.19,26.73],[88.17,26.84],[88.18,26.87],[88.14,26.89],[88.15,26.92],[88.12,26.95],[88.14,26.99],[88.11,26.99],[88.08,27.04],[88.05,27.03],[88.02,27.09],[87.99,27.11],[88.02,27.17],[88.01,27.2],[88.03,27.29],[88.05,27.29],[88.05,27.32],[88.07,27.33],[88.04,27.37],[88.05,27.41],[88.08,27.43],[88.08,27.45],[88.05,27.47],[88.06,27.54],[88.12,27.61],[88.12,27.65],[88.16,27.69],[88.16,27.74],[88.2,27.79],[88.18,27.82],[88.2,27.85],[88.13,27.88],[88.11,27.91],[88.13,27.96],[88.19,27.94],[88.2,27.97],[88.25,27.95],[88.33,27.99],[88.4,27.98],[88.48,28.05],[88.54,28.04],[88.56,28.09],[88.62,28.1],[88.61,28.13],[88.63,28.13],[88.67,28.07],[88.74,28.08],[88.83,28.02],[88.84,27.93],[88.86,27.93],[88.89,27.86],[88.87,27.82],[88.85,27.82],[88.85,27.67],[88.81,27.64],[88.81,27.6],[88.77,27.57],[88.77,27.54],[88.79,27.53],[88.78,27.45],[88.83,27.38],[88.86,27.39],[88.89,27.33],[88.92,27.32],[88.9,27.27],[88.8,27.25],[88.79,27.18],[88.76,27.18],[88.75,27.14],[88.8,27.14],[88.87,27.11],[88.87,26.95],[88.92,27],[88.95,26.98],[88.96,26.95],[88.94,26.94],[88.96,26.92],[89.03,26.94],[89.05,26.9],[89.09,26.9],[89.1,26.84],[89.13,26.81],[89.27,26.82],[89.38,26.87],[89.39,26.84],[89.44,26.84],[89.47,26.8],[89.56,26.82],[89.59,26.79],[89.65,26.78],[89.65,26.75],[89.61,26.73],[89.62,26.72],[89.71,26.74],[89.73,26.72],[89.76,26.74],[89.77,26.7],[89.81,26.72],[89.86,26.7],[89.86,26.74],[89.89,26.72],[89.97,26.72],[90.15,26.75],[90.19,26.77],[90.18,26.81],[90.21,26.85],[90.31,26.85],[90.36,26.9],[90.42,26.9],[90.54,26.81],[90.64,26.79],[90.65,26.77],[90.97,26.79],[91.06,26.78],[91.09,26.82],[91.26,26.81],[91.34,26.78],[91.38,26.8],[91.4,26.84],[91.48,26.79],[91.59,26.8],[91.61,26.82],[91.68,26.8],[91.82,26.86],[91.87,26.92],[91.9,26.92],[92,26.85],[92.06,26.85],[92.1,26.87],[92.12,26.96],[92.08,27.04],[92.03,27.06],[92.02,27.11],[92.04,27.14],[92.02,27.16],[92.07,27.21],[92.07,27.24],[92.04,27.27],[92.12,27.27],[92.12,27.29],[92.06,27.33],[92.02,27.48],[91.98,27.46],[91.84,27.48],[91.77,27.46],[91.71,27.47],[91.7,27.5],[91.68,27.5],[91.65,27.48],[91.56,27.58],[91.58,27.61],[91.56,27.63],[91.62,27.7],[91.64,27.77],[91.62,27.81],[91.57,27.81],[91.54,27.86],[91.67,27.86],[91.69,27.82],[91.75,27.8],[91.83,27.81],[91.83,27.78],[91.85,27.78],[91.88,27.72],[91.93,27.72],[91.98,27.77],[92.06,27.76],[92.2,27.86],[92.26,27.86],[92.31,27.78],[92.37,27.79],[92.38,27.82],[92.45,27.8],[92.49,27.84],[92.56,27.82],[92.61,27.88],[92.67,27.9],[92.74,27.99],[92.7,28.05],[92.66,28.06],[92.7,28.14],[92.74,28.15],[92.8,28.2],[92.82,28.2],[92.83,28.17],[92.9,28.2],[92.91,28.24],[92.96,28.26],[93,28.23],[93.03,28.26],[93.02,28.3],[93.11,28.31],[93.12,28.33],[93.22,28.33],[93.23,28.41],[93.18,28.44],[93.28,28.5],[93.31,28.57],[93.3,28.6],[93.33,28.61],[93.34,28.64],[93.41,28.65],[93.45,28.68],[93.47,28.65],[93.48,28.68],[93.51,28.68],[93.52,28.66],[93.64,28.66],[93.73,28.69],[93.79,28.67],[93.84,28.71],[93.93,28.67],[93.97,28.72],[93.97,28.75],[94,28.77],[93.99,28.84],[94.03,28.85],[94.09,28.92],[94.16,28.95],[94.18,29.04],[94.23,29.1],[94.29,29.15],[94.36,29.15],[94.37,29.19],[94.43,29.23],[94.55,29.22],[94.57,29.24],[94.57,29.28],[94.62,29.31],[94.62,29.35],[94.68,29.33],[94.8,29.22],[94.8,29.16],[94.83,29.18],[94.89,29.18],[95.03,29.13],[94.99,29.17],[95.01,29.17],[95.15,29.11],[95.25,29.11],[95.26,29.06],[95.41,29.03],[95.46,29.04],[95.49,29.08],[95.49,29.14],[95.55,29.13],[95.54,29.21],[95.59,29.22],[95.6,29.26],[95.64,29.25],[95.7,29.3],[95.73,29.3],[95.78,29.36],[95.8,29.34],[95.83,29.36],[95.84,29.35],[95.88,29.39],[95.96,29.38],[96.04,29.45],[96.09,29.46],[96.18,29.36],[96.18,29.31],[96.23,29.24],[96.29,29.24],[96.36,29.29],[96.39,29.26],[96.39,29.23],[96.35,29.17],[96.23,29.15],[96.19,29.09],[96.11,29.08],[96.18,29],[96.18,28.97],[96.15,28.95],[96.17,28.9],[96.25,28.94],[96.29,29],[96.34,29.03],[96.45,29.04],[96.53,29.08],[96.48,29.01],[96.48,28.97],[96.52,28.97],[96.55,28.86],[96.62,28.78],[96.59,28.72],[96.47,28.69],[96.5,28.64],[96.43,28.59],[96.4,28.59],[96.41,28.56],[96.35,28.56],[96.33,28.53],[96.37,28.5],[96.37,28.48],[96.26,28.41],[96.37,28.39],[96.4,28.34],[96.43,28.36],[96.45,28.42],[96.52,28.42],[96.6,28.47],[96.66,28.47],[96.76,28.42],[96.77,28.37],[96.85,28.37],[96.9,28.39],[96.92,28.35],[96.97,28.32],[97.03,28.33],[97.08,28.37],[97.13,28.36],[97.17,28.3],[97.28,28.28],[97.4,28.2],[97.36,28.2],[97.32,28.15],[97.34,28.12],[97.31,28.09],[97.31,28.07],[97.37,28.07],[97.38,28.04],[97.42,28.02],[97.38,27.99],[97.39,27.9],[97.32,27.89],[97.32,27.92],[97.3,27.93],[97.24,27.9],[97.16,27.82],[97.1,27.79],[97.1,27.75],[97.06,27.76],[97.01,27.74],[96.98,27.67],[96.94,27.67],[96.9,27.62],[96.9,27.59],[96.94,27.53],[96.91,27.46],[96.97,27.42],[96.97,27.38],[97,27.36],[97,27.33],[97.06,27.29],[97.06,27.27],[97.1,27.24],[97.1,27.21],[97.17,27.16],[97.15,27.1],[97.11,27.12],[97.06,27.11],[97.04,27.14],[96.98,27.17],[96.88,27.19],[96.86,27.22],[96.89,27.23],[96.89,27.27],[96.86,27.27],[96.85,27.31],[96.82,27.32],[96.81,27.35],[96.74,27.36],[96.72,27.38],[96.61,27.37],[96.6,27.34],[96.56,27.33],[96.52,27.29],[96.51,27.31],[96.42,27.31],[96.39,27.29],[96.3,27.3],[96.04,27.2],[95.94,27.05],[95.88,27.02],[95.81,27.02],[95.77,26.98],[95.75,26.9],[95.71,26.88],[95.67,26.91],[95.61,26.82],[95.56,26.84],[95.53,26.83],[95.5,26.77],[95.46,26.75],[95.43,26.7],[95.31,26.66],[95.27,26.66],[95.26,26.69],[95.24,26.69],[95.21,26.65],[95.15,26.62],[95.16,26.59],[95.11,26.55],[95.12,26.53],[95.08,26.49],[95.07,26.45],[95.11,26.43],[95.1,26.4],[95.14,26.39],[95.12,26.23],[95.14,26.21],[95.12,26.2],[95.12,26.1],[95.17,26.1],[95.19,26.08],[95.11,25.97],[95.02,25.91],[95.05,25.76],[94.94,25.68],[94.92,25.61],[94.89,25.59],[94.9,25.57],[94.84,25.56],[94.81,25.49],[94.69,25.47],[94.68,25.42],[94.63,25.39],[94.59,25.21],[94.65,25.17],[94.75,25.14],[94.75,25.04],[94.7,24.98],[94.72,24.94],[94.63,24.83],[94.63,24.75],[94.61,24.72],[94.55,24.72],[94.54,24.64],[94.49,24.58],[94.46,24.57],[94.43,24.49],[94.4,24.49],[94.41,24.43],[94.37,24.4],[94.39,24.38],[94.33,24.34],[94.33,24.29],[94.28,24.18],[94.26,24.17],[94.25,24.06],[94.23,24.07],[94.25,24.04],[94.19,23.97],[94.2,23.94],[94.17,23.94],[94.17,23.86],[94.12,23.84],[94.1,23.89],[94.05,23.9],[94.03,23.93],[93.97,23.93],[93.93,23.96],[93.81,23.93],[93.76,24.01],[93.66,24],[93.63,24.02],[93.61,23.97],[93.56,23.99],[93.55,23.96],[93.51,23.95],[93.47,23.97],[93.47,24],[93.42,24.08],[93.35,24.11],[93.33,23.99],[93.4,23.93],[93.4,23.77],[93.42,23.7],[93.44,23.7],[93.42,23.57],[93.43,23.53],[93.4,23.48],[93.41,23.39],[93.4,23.36],[93.37,23.36],[93.39,23.19],[93.37,23.15],[93.39,23.14],[93.36,23.11],[93.34,23.04],[93.29,23],[93.24,23.01],[93.21,23.06],[93.13,23.05],[93.13,23],[93.15,22.98],[93.14,22.96],[93.17,22.92],[93.14,22.91],[93.14,22.88],[93.12,22.87],[93.12,22.83],[93.1,22.81],[93.11,22.74],[93.09,22.71],[93.11,22.69],[93.11,22.64],[93.15,22.59],[93.12,22.57],[93.11,22.53],[93.13,22.53],[93.14,22.5],[93.13,22.47],[93.19,22.43],[93.21,22.26],[93.15,22.25],[93.17,22.21],[93.16,22.18],[93.09,22.21],[93.04,22.19],[93.07,22.1],[93.01,22.1],[93.01,21.98],[92.99,21.98],[92.97,22.03],[92.95,22.03],[92.93,22.02],[92.92,21.95],[92.87,22.03],[92.87,22.07],[92.84,22.06],[92.82,22.1],[92.77,22.11],[92.77,22.13],[92.73,22.15],[92.7,22.15],[92.69,22.02],[92.66,22.02],[92.63,21.98],[92.61,21.98],[92.61,22.05],[92.57,22.12],[92.6,22.14],[92.61,22.12],[92.61,22.18],[92.59,22.33],[92.56,22.4],[92.55,22.54],[92.53,22.56],[92.54,22.63],[92.52,22.71],[92.48,22.76],[92.48,22.8],[92.46,22.81],[92.45,22.89],[92.38,22.93],[92.39,23.08],[92.37,23.1],[92.36,23.24],[92.41,23.24],[92.41,23.26],[92.37,23.32],[92.38,23.37],[92.36,23.37],[92.34,23.47],[92.32,23.47],[92.32,23.56],[92.29,23.6],[92.3,23.63],[92.28,23.63],[92.3,23.69],[92.27,23.73],[92.24,23.72],[92.24,23.67],[92.21,23.66],[92.22,23.7],[92.18,23.71],[92.18,23.74],[92.16,23.74],[92.07,23.64],[92.02,23.66],[91.99,23.72],[91.96,23.73],[91.94,23.68],[91.98,23.48],[91.94,23.47],[91.95,23.44],[91.89,23.44],[91.86,23.4],[91.84,23.4],[91.84,23.37],[91.77,23.28],[91.82,23.1],[91.84,23.09],[91.82,23.07],[91.78,23.07],[91.77,23.03],[91.73,22.99],[91.65,22.99],[91.63,22.95],[91.6,22.98],[91.58,22.96],[91.55,22.99],[91.55,23.03],[91.53,23.05],[91.54,23.09],[91.51,23.12],[91.52,23.14],[91.5,23.14],[91.51,23.19],[91.48,23.19],[91.48,23.22],[91.46,23.21],[91.46,23.26],[91.42,23.26],[91.39,23.21],[91.42,23.06],[91.4,23.05],[91.37,23.07],[91.33,23.16],[91.32,23.31],[91.3,23.31],[91.3,23.34],[91.33,23.36],[91.29,23.36],[91.3,23.38],[91.28,23.38],[91.26,23.48],[91.2,23.52],[91.22,23.55],[91.2,23.55],[91.16,23.61],[91.16,23.67],[91.21,23.65],[91.21,23.69],[91.16,23.69],[91.16,23.75],[91.23,23.74],[91.23,23.8],[91.26,23.84],[91.23,23.9],[91.25,23.91],[91.24,23.93],[91.28,23.93],[91.27,23.97],[91.3,23.97],[91.31,24],[91.38,23.98],[91.37,24.01],[91.4,24.05],[91.38,24.07],[91.38,24.11],[91.6,24.08],[91.6,24.1],[91.64,24.11],[91.66,24.23],[91.69,24.16],[91.76,24.14],[91.74,24.25],[91.81,24.21],[91.85,24.22],[91.86,24.21],[91.84,24.2],[91.87,24.18],[91.88,24.14],[91.91,24.14],[91.94,24.25],[91.92,24.34],[91.96,24.36],[91.98,24.34],[91.97,24.33],[92,24.32],[91.97,24.39],[92.09,24.37],[92.12,24.38],[92.15,24.43],[92.17,24.42],[92.15,24.48],[92.16,24.53],[92.23,24.5],[92.25,24.66],[92.3,24.74],[92.28,24.83],[92.25,24.83],[92.26,24.84],[92.24,24.85],[92.24,24.91],[92.28,24.9],[92.3,24.92],[92.39,24.85],[92.45,24.86],[92.45,24.88],[92.49,24.87],[92.49,24.95],[92.47,24.94],[92.46,24.98],[92.42,24.98],[92.43,25.03],[92.35,25.05],[92.35,25.08],[92.31,25.07],[92.25,25.09],[92.21,25.11],[92.22,25.13],[92.19,25.12],[92.14,25.14],[92.14,25.16],[92.09,25.19],[91.75,25.18],[91.75,25.15],[91.71,25.16],[91.65,25.12],[91.63,25.15],[91.6,25.15],[91.61,25.17],[91.47,25.13],[91.47,25.15],[91.43,25.15],[91.43,25.17],[91.34,25.17],[91.3,25.18],[91.29,25.2],[91.08,25.2],[90.94,25.16],[90.81,25.16],[90.8,25.18],[90.77,25.18],[90.75,25.16],[90.69,25.16],[90.66,25.19],[90.65,25.17],[90.5,25.17],[90.45,25.14],[90.38,25.16],[90.35,25.19],[90.08,25.24],[90.02,25.28],[89.98,25.28],[89.98,25.3],[89.91,25.31],[89.89,25.29],[89.84,25.29],[89.82,25.39],[89.86,25.46],[89.86,25.54],[89.89,25.63],[89.85,25.68],[89.86,25.71],[89.83,25.72],[89.84,25.79],[89.81,25.82],[89.89,25.94],[89.83,25.94],[89.85,25.95],[89.84,25.97],[89.88,25.98],[89.84,26.01],[89.84,25.98],[89.82,25.98],[89.82,26.04],[89.8,26.02],[89.79,26.03],[89.8,26.09],[89.79,26.11],[89.76,26.11],[89.77,26.14],[89.75,26.16],[89.68,26.16],[89.7,26.17],[89.68,26.2],[89.69,26.23],[89.64,26.23],[89.65,26.18],[89.63,26.19],[89.62,26.16],[89.6,26.16],[89.6,26.13],[89.63,26.11],[89.6,26.1],[89.64,26.1],[89.65,26.06],[89.6,26.05],[89.58,26.02],[89.58,25.97],[89.55,25.96],[89.55,26],[89.53,26.01],[89.43,26.01],[89.44,26.04],[89.41,26.04],[89.4,26.01],[89.35,26.01],[89.33,26.04],[89.28,26.05],[89.29,26.07],[89.26,26.06],[89.27,26.09],[89.24,26.12],[89.16,26.14],[89.16,26.17],[89.14,26.18],[89.15,26.24],[89.11,26.28],[89.11,26.32],[89.13,26.29],[89.14,26.32],[89.1,26.33],[89.11,26.35],[89.09,26.36],[89.09,26.4],[89,26.42],[88.98,26.46],[88.96,26.46],[88.95,26.43],[88.93,26.44],[88.94,26.41],[88.92,26.41],[88.92,26.37],[88.97,26.36],[88.96,26.33],[88.99,26.35],[89.01,26.33],[88.99,26.32],[89,26.29],[89.03,26.31],[89.04,26.28],[89.05,26.3],[89.07,26.29],[89.06,26.24],[88.96,26.24],[88.94,26.29],[88.88,26.29],[88.88,26.24],[88.83,26.24],[88.82,26.31],[88.76,26.3],[88.76,26.34],[88.74,26.36],[88.7,26.33],[88.69,26.41],[88.63,26.43],[88.62,26.47],[88.59,26.47],[88.6,26.45],[88.58,26.45],[88.53,26.48],[88.52,26.51],[88.49,26.51],[88.48,26.54],[88.44,26.54],[88.42,26.57],[88.42,26.63],[88.4,26.63],[88.4,26.6],[88.38,26.6],[88.33,26.48],[88.35,26.45],[88.36,26.49],[88.48,26.46],[88.5,26.44],[88.5,26.4],[88.52,26.39],[88.52,26.35],[88.45,26.37],[88.44,26.34],[88.41,26.34],[88.4,26.31],[88.35,26.29],[88.36,26.23],[88.33,26.2],[88.26,26.18],[88.24,26.19],[88.24,26.17],[88.18,26.15],[88.18,26.11],[88.16,26.09],[88.19,26.07],[88.17,26.03],[88.19,26.02],[88.15,26.02],[88.15,26],[88.12,25.98],[88.12,25.94],[88.09,25.93],[88.09,25.89],[88.11,25.88],[88.1,25.83],[88.12,25.79],[88.15,25.79],[88.15,25.77],[88.18,25.8],[88.23,25.79],[88.24,25.81],[88.27,25.81],[88.28,25.77],[88.38,25.71],[88.37,25.69],[88.46,25.66],[88.45,25.6],[88.5,25.58],[88.5,25.55],[88.54,25.53],[88.54,25.51],[88.65,25.5],[88.66,25.47],[88.7,25.47],[88.72,25.5],[88.77,25.49],[88.76,25.52],[88.81,25.52],[88.81,25.49],[88.84,25.47],[88.84,25.43],[88.82,25.41],[88.84,25.4],[88.84,25.36],[88.86,25.36],[88.89,25.32],[88.91,25.34],[88.93,25.3],[89.01,25.3],[89.01,25.28],[88.95,25.26],[88.96,25.22],[88.93,25.21],[88.95,25.18],[88.93,25.19],[88.92,25.17],[88.85,25.21],[88.83,25.21],[88.81,25.17],[88.78,25.19],[88.75,25.18],[88.72,25.21],[88.61,25.21],[88.59,25.18],[88.51,25.21],[88.45,25.2],[88.45,25.03],[88.41,24.99],[88.42,24.97],[88.39,24.96],[88.4,24.94],[88.34,24.94],[88.34,24.87],[88.3,24.87],[88.3,24.89],[88.27,24.89],[88.23,24.96],[88.17,24.95],[88.16,24.93],[88.14,24.94],[88.17,24.86],[88.11,24.81],[88.11,24.78],[88.07,24.77],[88.07,24.72],[88.01,24.66],[88.05,24.64],[88.09,24.56],[88.15,24.5],[88.22,24.45],[88.28,24.44],[88.33,24.38],[88.45,24.38],[88.53,24.34],[88.55,24.3],[88.57,24.33],[88.59,24.33],[88.6,24.31],[88.71,24.31],[88.74,24.27],[88.73,24.2],[88.7,24.17],[88.71,24.12],[88.69,24.11],[88.7,24.09],[88.73,24.1],[88.73,23.99],[88.76,24.01],[88.77,23.98],[88.73,23.98],[88.73,23.91],[88.7,23.91],[88.64,23.86],[88.62,23.88],[88.6,23.86],[88.58,23.87],[88.6,23.81],[88.56,23.79],[88.58,23.75],[88.56,23.71],[88.56,23.64],[88.59,23.64],[88.58,23.6],[88.65,23.61],[88.64,23.59],[88.66,23.55],[88.73,23.51],[88.74,23.48],[88.8,23.5],[88.79,23.44],[88.76,23.44],[88.76,23.36],[88.73,23.35],[88.75,23.31],[88.7,23.3],[88.72,23.25],[88.77,23.24],[88.78,23.22],[88.81,23.22],[88.81,23.25],[88.85,23.22],[88.92,23.23],[88.92,23.21],[88.95,23.2],[88.99,23.22],[88.99,23.19],[88.94,23.17],[88.92,23.12],[88.87,23.1],[88.88,23.03],[88.86,23],[88.86,22.95],[88.9,22.95],[88.91,22.87],[88.95,22.88],[88.97,22.84],[88.96,22.79],[88.92,22.77],[88.92,22.73],[88.96,22.69],[88.93,22.62],[88.96,22.61],[88.94,22.6],[88.94,22.57],[88.91,22.56],[88.96,22.55],[88.97,22.49],[88.99,22.48],[88.99,22.42],[88.96,22.4],[88.99,22.39],[88.98,22.32],[89.02,22.31],[88.99,22.28],[89.02,22.27],[89.01,22.25],[89.03,22.26],[89.03,22.23],[89.07,22.2],[89.07,22.13],[89.02,22.16],[89.02,22.21],[88.97,22.21],[88.95,22.25],[88.96,22.17],[88.99,22.15],[88.98,22.1],[88.96,22.07],[88.92,22.06],[88.92,22.02],[88.9,22.07],[88.92,22.09],[88.9,22.09],[88.9,22.02],[88.87,22.01],[88.9,22.01],[88.92,21.92],[89.03,21.87],[89.03,21.82],[89.01,21.82],[89.02,21.77],[89,21.76],[89.03,21.76],[89.06,21.73],[89.1,21.64],[89,21.6],[88.99,21.64],[88.99,21.61],[88.97,21.61],[88.94,21.64],[88.95,21.71],[88.93,21.71],[88.93,21.64],[88.88,21.66],[88.87,21.72],[88.89,21.75],[88.87,21.78],[88.84,21.78],[88.85,21.9],[88.82,21.92],[88.83,21.94],[88.8,21.93],[88.8,21.91],[88.84,21.89],[88.84,21.87],[88.82,21.87],[88.82,21.78],[88.86,21.76],[88.84,21.73],[88.84,21.68],[88.86,21.63],[88.81,21.63],[88.82,21.71],[88.81,21.66],[88.74,21.66],[88.71,21.69],[88.7,21.87],[88.73,21.93],[88.72,21.98],[88.76,22],[88.76,22.06],[88.71,22.06],[88.69,22.09],[88.69,22.05],[88.73,22.04],[88.74,22.01],[88.7,22.01],[88.71,21.99],[88.68,21.94],[88.63,21.95],[88.63,22],[88.66,22.02],[88.66,22.07],[88.63,22.11],[88.65,22.16],[88.68,22.18],[88.67,22.21],[88.62,22.13],[88.64,22.04],[88.6,22],[88.61,21.91],[88.57,21.88],[88.57,21.84],[88.53,21.83],[88.5,21.89],[88.48,21.89],[88.49,21.84],[88.47,21.83],[88.5,21.83],[88.5,21.81],[88.46,21.8],[88.46,21.63],[88.44,21.62],[88.43,21.64],[88.43,21.62],[88.39,21.6],[88.39,21.71],[88.35,21.69],[88.34,21.62],[88.31,21.61],[88.3,21.66],[88.29,21.6],[88.31,21.59],[88.29,21.56],[88.25,21.56],[88.24,21.61],[88.21,21.63],[88.2,21.61],[88.19,21.63],[88.18,21.7],[88.21,21.72],[88.22,21.78],[88.16,21.88],[88.18,21.93],[88.16,21.92],[88.16,21.97],[88.22,22.04],[88.21,22.16],[88.17,22.2],[88.07,22.21],[88.1,22.3],[88.05,22.22],[88,22.23],[87.96,22.27],[87.96,22.37],[87.95,22.41],[87.93,22.41],[87.95,22.33],[87.93,22.3],[87.97,22.22],[88,22.2],[88.05,22.21],[88.06,22.19],[88.13,22.19],[88.19,22.12],[88.18,22.08],[88.07,22.01],[88.05,22.02],[87.98,21.85],[87.83,21.74],[87.81,21.7],[87.75,21.7],[87.75,21.68],[87.68,21.65],[87.55,21.64],[87.5,21.61],[87.46,21.61],[87.44,21.58],[87.38,21.55],[87.2,21.55],[87.13,21.51],[87.11,21.52],[87.08,21.47],[87,21.43],[86.89,21.32],[86.84,21.21],[86.82,21.2],[86.82,21.14],[86.96,20.87],[86.97,20.8],[86.95,20.77],[87,20.77],[87,20.72],[87.02,20.72],[86.98,20.7],[87.03,20.7],[86.78,20.54],[86.78,20.51],[86.75,20.5],[86.75,20.47],[86.73,20.46],[86.73,20.4],[86.78,20.4],[86.78,20.38],[86.81,20.37],[86.79,20.37],[86.76,20.32],[86.72,20.31],[86.71,20.28],[86.67,20.27],[86.66,20.25],[86.55,20.21],[86.52,20.18],[86.49,20.19],[86.49,20.17],[86.52,20.16],[86.45,20.07],[86.42,20.06],[86.41,19.99],[86.34,19.98],[86.37,19.96],[86.15,19.87],[86.06,19.85],[86.03,19.86],[86.02,19.84],[85.93,19.83],[85.68,19.75],[85.6,19.7],[85.57,19.7],[85.56,19.68],[85.4,19.62],[85.14,19.45],[85.09,19.38],[85.07,19.38],[85.07,19.36],[84.95,19.3],[84.8,19.15],[84.73,19.02],[84.69,18.97],[84.66,18.97],[84.67,18.95],[84.58,18.87],[84.55,18.79],[84.45,18.7],[84.44,18.66],[84.36,18.59],[84.35,18.55],[84.15,18.38],[84.12,18.3],[83.67,18.09],[83.65,18.06],[83.57,18.02],[83.56,17.98],[83.51,17.93],[83.45,17.9],[83.45,17.88],[83.41,17.85],[83.42,17.82],[83.35,17.76],[83.3,17.67],[83.23,17.63],[83.22,17.59],[83.06,17.53],[83,17.5],[83,17.47],[82.9,17.44],[82.87,17.41],[82.81,17.4],[82.63,17.31],[82.45,17.19],[82.36,17.09],[82.32,17.07],[82.28,17.01],[82.27,16.94],[82.25,16.94],[82.25,16.9],[82.31,16.86],[82.31,16.84],[82.33,16.86],[82.36,16.85],[82.36,16.81],[82.34,16.74],[82.32,16.74],[82.31,16.71],[82.25,16.72],[82.25,16.7],[82.32,16.7],[82.35,16.72],[82.31,16.64],[82.32,16.61],[82.29,16.62],[82.3,16.58],[82.27,16.57],[82.28,16.55],[82.24,16.55],[81.94,16.39],[81.83,16.37],[81.73,16.31],[81.7,16.33],[81.57,16.34],[81.55,16.36],[81.37,16.34],[81.36,16.36],[81.35,16.32],[81.32,16.32],[81.23,16.24],[81.2,16.17],[81.2,16.12],[81.14,16.03],[81.15,15.97],[81.08,15.93],[81.07,15.9],[81,15.84],[80.99,15.8],[81.01,15.76],[80.95,15.72],[80.82,15.71],[80.79,15.81],[80.81,15.84],[80.74,15.88],[80.58,15.87],[80.35,15.76],[80.27,15.68],[80.24,15.62],[80.21,15.47],[80.11,15.36],[80.08,15.27],[80.09,15.2],[80.07,15.19],[80.08,15.17],[80.05,15.12],[80.05,15],[80.09,14.88],[80.1,14.76],[80.15,14.7],[80.17,14.61],[80.2,14.6],[80.18,14.54],[80.17,14.34],[80.13,14.25],[80.13,14.09],[80.15,14.01],[80.17,14],[80.16,13.98],[80.18,13.98],[80.23,13.83],[80.25,13.82],[80.23,13.65],[80.26,13.57],[80.22,13.63],[80.19,13.64],[80.19,13.67],[80.16,13.7],[80.14,13.7],[80.14,13.61],[80.17,13.59],[80.16,13.56],[80.14,13.55],[80.13,13.57],[80.15,13.6],[80.13,13.6],[80.11,13.63],[80.12,13.67],[80.08,13.66],[80.05,13.58],[80.15,13.49],[80.22,13.49],[80.23,13.49]]],[[[92.65,11.52],[92.64,11.58],[92.62,11.57],[92.61,11.53],[92.6,11.59],[92.61,11.62],[92.64,11.63],[92.6,11.64],[92.6,11.7],[92.58,11.72],[92.57,11.69],[92.55,11.71],[92.56,11.78],[92.54,11.84],[92.52,11.83],[92.52,11.88],[92.57,11.94],[92.61,11.87],[92.6,11.96],[92.63,12.04],[92.62,12.11],[92.64,12.17],[92.66,12.18],[92.65,12.2],[92.67,12.2],[92.66,12.22],[92.69,12.21],[92.7,12.24],[92.7,12.17],[92.74,12.18],[92.72,12.19],[92.72,12.24],[92.74,12.22],[92.74,12.28],[92.78,12.28],[92.78,12.3],[92.72,12.3],[92.7,12.33],[92.71,12.5],[92.69,12.52],[92.71,12.55],[92.71,12.6],[92.68,12.61],[92.71,12.61],[92.71,12.64],[92.74,12.64],[92.72,12.83],[92.74,12.82],[92.76,12.87],[92.79,12.86],[92.77,12.91],[92.8,12.92],[92.79,12.99],[92.82,12.98],[92.82,13.01],[92.79,13.01],[92.79,13.06],[92.83,13.11],[92.81,13.13],[92.84,13.13],[92.84,13.15],[92.81,13.15],[92.81,13.17],[92.84,13.17],[92.82,13.18],[92.82,13.21],[92.83,13.24],[92.85,13.24],[92.82,13.29],[92.84,13.29],[92.84,13.38],[92.87,13.39],[92.84,13.4],[92.87,13.4],[92.88,13.42],[92.87,13.47],[92.9,13.48],[92.9,13.5],[92.93,13.5],[92.91,13.53],[92.92,13.54],[92.99,13.53],[92.98,13.56],[93.02,13.56],[93.03,13.58],[93.04,13.48],[93.02,13.46],[93.04,13.45],[93.04,13.4],[93.07,13.41],[93.05,13.38],[93.09,13.33],[93.07,13.33],[93.06,13.3],[93.06,13.33],[93.04,13.32],[93.05,13.35],[92.99,13.35],[92.98,13.33],[92.96,13.36],[92.95,13.33],[93.02,13.32],[93.01,13.28],[93.05,13.28],[93.04,13.26],[93.06,13.26],[93.03,13.19],[93.04,13.08],[93.01,13.03],[92.99,13.04],[92.97,13.02],[92.93,13.04],[92.94,13.06],[92.92,13.06],[92.9,13.02],[92.94,12.97],[92.91,12.95],[92.91,12.99],[92.89,12.99],[92.86,12.92],[92.86,12.9],[92.89,12.89],[92.91,12.92],[92.91,12.89],[92.93,12.89],[92.95,12.84],[92.95,12.79],[92.93,12.77],[92.95,12.77],[92.98,12.72],[92.96,12.7],[92.97,12.49],[92.93,12.48],[92.95,12.45],[92.92,12.44],[92.92,12.41],[92.88,12.42],[92.86,12.4],[92.89,12.39],[92.85,12.39],[92.86,12.36],[92.89,12.35],[92.88,12.33],[92.9,12.33],[92.88,12.31],[92.87,12.32],[92.87,12.29],[92.89,12.29],[92.88,12.24],[92.9,12.26],[92.91,12.23],[92.88,12.23],[92.87,12.2],[92.85,12.2],[92.85,12.16],[92.82,12.17],[92.82,12.14],[92.8,12.13],[92.81,12.11],[92.79,12.11],[92.77,12.06],[92.75,12.06],[92.78,12.05],[92.78,12.01],[92.77,12.03],[92.74,12.03],[92.76,11.98],[92.73,12],[92.72,11.98],[92.72,11.9],[92.76,11.94],[92.79,11.93],[92.79,11.85],[92.77,11.82],[92.76,11.7],[92.74,11.71],[92.73,11.69],[92.7,11.71],[92.7,11.67],[92.67,11.65],[92.68,11.62],[92.72,11.65],[92.72,11.68],[92.76,11.67],[92.72,11.49],[92.7,11.49],[92.7,11.51],[92.65,11.51],[92.69,11.44],[92.67,11.43],[92.66,11.39],[92.68,11.4],[92.69,11.37],[92.59,11.35],[92.59,11.4],[92.62,11.4],[92.61,11.48],[92.64,11.52],[92.65,11.52]]],[[[93.93,7.03],[93.95,6.99],[93.92,7.01],[93.91,6.99],[93.93,6.99],[93.93,6.96],[93.95,6.95],[93.92,6.95],[93.92,6.91],[93.9,6.91],[93.9,6.8],[93.88,6.79],[93.87,6.82],[93.85,6.82],[93.84,6.76],[93.8,6.76],[93.81,6.81],[93.79,6.82],[93.79,6.86],[93.77,6.86],[93.78,6.89],[93.74,6.92],[93.75,6.96],[93.73,6.99],[93.7,6.99],[93.69,7.02],[93.67,7.01],[93.66,7.04],[93.66,7.13],[93.68,7.14],[93.67,7.18],[93.74,7.19],[93.75,7.21],[93.81,7.21],[93.82,7.24],[93.85,7.24],[93.85,7.21],[93.88,7.21],[93.89,7.08],[93.91,7.07],[93.92,7.03],[93.93,7.03]]],[[[68.23,23.58],[68.22,23.6],[68.19,23.6],[68.19,23.64],[68.26,23.64],[68.34,23.73],[68.34,23.8],[68.37,23.81],[68.33,23.82],[68.31,23.79],[68.32,23.73],[68.26,23.71],[68.26,23.68],[68.23,23.68],[68.23,23.7],[68.21,23.7],[68.19,23.73],[68.23,23.76],[68.21,23.84],[68.23,23.83],[68.27,23.87],[68.26,23.89],[68.28,23.92],[68.33,23.91],[68.36,23.98],[68.41,23.97],[68.44,23.99],[68.44,23.95],[68.45,23.99],[68.49,23.99],[68.52,23.92],[68.48,23.9],[68.47,23.86],[68.43,23.85],[68.43,23.81],[68.41,23.81],[68.43,23.78],[68.4,23.66],[68.37,23.65],[68.35,23.6],[68.32,23.58],[68.28,23.58],[68.27,23.6],[68.26,23.58],[68.23,23.59],[68.23,23.58]]],[[[92.53,10.88],[92.56,10.86],[92.56,10.8],[92.59,10.79],[92.58,10.74],[92.6,10.68],[92.58,10.68],[92.58,10.65],[92.54,10.63],[92.54,10.59],[92.57,10.57],[92.52,10.51],[92.47,10.52],[92.44,10.55],[92.38,10.53],[92.42,10.63],[92.4,10.67],[92.38,10.67],[92.38,10.79],[92.4,10.77],[92.46,10.84],[92.46,10.87],[92.51,10.9],[92.53,10.89],[92.53,10.88]]]]}}]}